ONEWEB-0298             
1 49087U 21075N   24111.50661238  .00000109  00000+0  24667-3 0  9990
2 49087  87.9209 162.6313 0002264  94.3272 265.8119 13.17650775130882
ONEWEB-0299             
1 49088U 21075P   24111.50817807  .00000159  00000+0  37758-3 0  9996
2 49088  87.9203 162.6030 0002327  92.1012 268.0386 13.17651388130849
ONEWEB-0300             
1 49089U 21075Q   24111.11662568 -.00000138  00000+0 -41923-3 0  9994
2 49089  87.8953 147.5556 0001880  87.5047 272.6297 13.12441597132821
ONEWEB-0301             
1 49090U 21075R   24110.56708533  .00000223  00000+0  58321-3 0  9990
2 49090  87.8953 147.6679 0001664  91.7816 268.3503 13.12442186132110
ONEWEB-0302             
1 49091U 21075S   24110.63061406  .00000532  00000+0  14442-2 0  9998
2 49091  87.8955 147.6533 0002306  97.9153 262.2238 13.12441321131115
ONEWEB-0304             
1 49092U 21075T   24110.64758332  .00000030  00000+0  44242-4 0  9997
2 49092  87.9208 162.7870 0002403  95.3674 264.7732 13.17648554129731
ONEWEB-0305             
1 49093U 21075U   24111.17121442 -.00000272  00000+0 -73494-3 0  9993
2 49093  87.9206 162.6717 0002496  88.0736 272.0681 13.17648659130800
ONEWEB-0308             
1 49094U 21075V   24110.62426085  .00000455  00000+0  12288-2 0  9998
2 49094  87.8955 147.6546 0001940  95.6997 264.4353 13.12441631131123
